TORO                    
1 60530U 24149BQ  26068.79501870  .00002725  00000+0  24799-3 0  9992
2 60530  97.6844 145.3205 0001020  86.2634 273.8704 14.96013579 85094
STARLINK-33993          
1 63949U 25098Z   26068.80554868 -.00087772  00000+0 -74293-2 0  9990
2 63949  70.0003 273.9954 0002378 281.9857  78.1036 14.98390673 46579
